[{"OBJECT_NAME":"STARLINK-31313","OBJECT_ID":"2024-041Q","EPOCH":"2026-03-09T00:57:40.391712","MEAN_MOTION":15.27572063,"ECCENTRICITY":0.00018741,"INCLINATION":43.0024,"RA_OF_ASC_NODE":314.2433,"ARG_OF_PERICENTER":256.6446,"MEAN_ANOMALY":103.4196,"EPHEMERIS_TYPE":0,"CLASSIFICATION_TYPE":"U","NORAD_CAT_ID":59088,"ELEMENT_SET_NO":999,"REV_AT_EPOCH":11417,"BSTAR":-0.0001235842,"MEAN_MOTION_DOT":-3.661e-5,"MEAN_MOTION_DDOT":0},{"OBJECT_NAME":"DELTA 1 R\/B(1)","OBJECT_ID":"1977-118B","EPOCH":"2026-03-09T06:43:16.851360","MEAN_MOTION":13.47350406,"ECCENTRICITY":0.0814229,"INCLINATION":28.6551,"RA_OF_ASC_NODE":189.0759,"ARG_OF_PERICENTER":117.268,"MEAN_ANOMALY":251.3149,"EPHEMERIS_TYPE":0,"CLASSIFICATION_TYPE":"U","NORAD_CAT_ID":10517,"ELEMENT_SET_NO":999,"REV_AT_EPOCH":33790,"BSTAR":0.00036454259,"MEAN_MOTION_DOT":2.074e-5,"MEAN_MOTION_DDOT":0}]
